QZS-1R                  
1 49336U 21096A   24238.54925002 -.00000294  00000+0  00000+0 0  9993
2 49336  36.0849  89.4748 0741736 269.3434 305.9058  1.00298538 10373
